[{"OBJECT_NAME":"MOHAMMED VI-A","OBJECT_ID":"2017-070A","EPOCH":"2026-03-09T23:14:54.770208","MEAN_MOTION":14.771271,"ECCENTRICITY":0.00014633,"INCLINATION":97.9427,"RA_OF_ASC_NODE":142.7067,"ARG_OF_PERICENTER":97.7701,"MEAN_ANOMALY":262.3676,"EPHEMERIS_TYPE":0,"CLASSIFICATION_TYPE":"U","NORAD_CAT_ID":43005,"ELEMENT_SET_NO":999,"REV_AT_EPOCH":44933,"BSTAR":0.00019951362,"MEAN_MOTION_DOT":1.36e-5,"MEAN_MOTION_DDOT":0},{"OBJECT_NAME":"KINEIS-2E","OBJECT_ID":"2025-028D","EPOCH":"2026-03-09T16:44:14.801856","MEAN_MOTION":14.7671567,"ECCENTRICITY":0.00019431,"INCLINATION":97.9078,"RA_OF_ASC_NODE":122.4137,"ARG_OF_PERICENTER":111.3454,"MEAN_ANOMALY":248.7964,"EPHEMERIS_TYPE":0,"CLASSIFICATION_TYPE":"U","NORAD_CAT_ID":62931,"ELEMENT_SET_NO":999,"REV_AT_EPOCH":5809,"BSTAR":0.000272559,"MEAN_MOTION_DOT":1.858e-5,"MEAN_MOTION_DDOT":0}]
